NORAD_CAT_ID,OBJECT_NAME,OBJECT_TYPE,EPOCH,MEAN_MOTION,ECCENTRICITY,INCLINATION,RA_OF_ASC_NODE,ARG_OF_PERICENTER,MEAN_ANOMALY,BSTAR,MEAN_MOTION_DOT,MEAN_MOTION_DDOT,TLE_LINE0,TLE_LINE1,TLE_LINE2,SEMIMAJOR_AXIS,PERIOD,APOGEE,PERIGEE,DECAYED
55918.0,STARLINK-5867,PAYLOAD,2024-04-05 13:36:09,14.98333798,0.0003037,69.998,277.3775,269.076,91.0051,7.9282e-05,8.53e-06,0.0,0 STARLINK-5867,1 55918U 23037E   24096.56678076  .00000853  00000-0  79282-4 0  9997,2 55918  69.9980 277.3775 0003037 269.0760  91.0051 14.98333798 58163,6950.181,96.107,574.157,569.935,0.0
55918.0,STARLINK-5867,PAYLOAD,2024-04-05 20:00:42,14.98334561,0.0003072,69.9981,276.704,268.9615,91.1192,6.7414e-05,7.12e-06,0.0,0 STARLINK-5867,1 55918U 23037E   24096.83381998  .00000712  00000-0  67414-4 0  9999,2 55918  69.9981 276.7040 0003072 268.9615  91.1192 14.98334561 58546,6950.179,96.107,574.179,569.909,0.0
55918.0,STARLINK-5867,PAYLOAD,2024-04-05 21:36:50,14.98334927,0.000307,69.9981,276.5356,269.0371,91.0436,7.0758e-05,7.51e-06,0.0,0 STARLINK-5867,1 55918U 23037E   24096.90057951  .00000751  00000-0  70758-4 0  9994,2 55918  69.9981 276.5356 0003070 269.0371  91.0436 14.98334927 58213,6950.178,96.107,574.176,569.909,0.0
55918.0,STARLINK-5867,PAYLOAD,2024-04-06 12:02:02,14.9833056,0.0003112,69.9981,275.0204,269.2113,90.869,9.4319e-05,1.033e-05,0.0,0 STARLINK-5867,1 55918U 23037E   24097.50142096  .00001033  00000-0  94319-4 0  9999,2 55918  69.9981 275.0204 0003112 269.2113  90.8690 14.98330560 58300,6950.191,96.107,574.219,569.893,0.0
55918.0,STARLINK-5867,PAYLOAD,2024-04-06 21:38:51,14.98331697,0.000313,69.9981,274.0108,270.0676,90.0124,9.5477e-05,1.046e-05,0.0,0 STARLINK-5867,1 55918U 23037E   24097.90198029  .00001046  00000-0  95477-4 0  9990,2 55918  69.9981 274.0108 0003130 270.0676  90.0124 14.98331697 58368,6950.188,96.107,574.228,569.877,0.0
55918.0,STARLINK-5867,PAYLOAD,2024-04-07 21:40:52,14.98332132,0.0003094,69.9983,271.4856,270.2964,89.7841,-1.9143e-06,-1.16e-06,0.0,0 STARLINK-5867,1 55918U 23037E   24098.90338206 -.00000116  00000-0 -19143-5 0  9990,2 55918  69.9983 271.4856 0003094 270.2964  89.7841 14.98332132 58515,6950.186,96.107,574.202,569.901,0.0
55918.0,STARLINK-5867,PAYLOAD,2024-04-08 04:05:24,14.98331606,0.0003064,69.9987,270.8123,270.8189,89.2619,3.415e-05,3.14e-06,0.0,0 STARLINK-5867,1 55918U 23037E   24099.17042173  .00000314  00000-0  34150-4 0  9997,2 55918  69.9987 270.8123 0003064 270.8189  89.2619 14.98331606 58895,6950.188,96.107,574.182,569.923,0.0
55918.0,STARLINK-5867,PAYLOAD,2024-04-08 10:29:56,14.98332263,0.000305,69.999,270.139,271.2489,88.8321,4.2575e-05,4.15e-06,0.0,0 STARLINK-5867,1 55918U 23037E   24099.43746095  .00000415  00000-0  42575-4 0  9992,2 55918  69.9990 270.1390 0003050 271.2489  88.8321 14.98332263 58593,6950.186,96.107,574.171,569.931,0.0
55918.0,STARLINK-5867,PAYLOAD,2024-04-08 21:42:52,14.98333597,0.0003036,69.9993,268.9607,271.623,88.4581,6.7864e-05,7.17e-06,0.0,0 STARLINK-5867,1 55918U 23037E   24099.90477904  .00000717  00000-0  67864-4 0  9997,2 55918  69.9993 268.9607 0003036 271.6230  88.4581 14.98333597 58667,6950.182,96.107,574.157,569.937,0.0
55918.0,STARLINK-5867,PAYLOAD,2024-04-09 04:07:25,14.98331415,0.0003024,69.9986,268.2872,271.569,88.5123,5.9015e-05,6.11e-06,0.0,0 STARLINK-5867,1 55918U 23037E   24100.17182029  .00000611  00000-0  59015-4 0  9992,2 55918  69.9986 268.2872 0003024 271.5690  88.5123 14.98331415 59045,6950.189,96.107,574.155,569.952,0.0
55918.0,STARLINK-5867,PAYLOAD,2024-04-09 16:56:29,14.98331119,0.0003066,69.9986,266.9406,270.6814,89.3993,6.932e-05,7.34e-06,0.0,0 STARLINK-5867,1 55918U 23037E   24100.70590019  .00000734  00000-0  69320-4 0  9999,2 55918  69.9986 266.9406 0003066 270.6814  89.3993 14.98331119 58782,6950.189,96.107,574.185,569.924,0.0
55918.0,STARLINK-5867,PAYLOAD,2024-04-10 04:09:26,14.98330083,0.0003102,69.9988,265.7623,270.6876,89.3927,4.4813e-05,4.42e-06,0.0,0 STARLINK-5867,1 55918U 23037E   24101.17322136  .00000442  00000-0  44813-4 0  9990,2 55918  69.9988 265.7623 0003102 270.6876  89.3927 14.98330083 59193,6950.193,96.107,574.214,569.902,0.0
55918.0,STARLINK-5867,PAYLOAD,2024-04-10 10:33:58,14.98326859,0.0002934,70.0004,265.0895,269.9725,90.1097,-2.2304e-05,-3.59e-06,0.0,0 STARLINK-5867,1 55918U 23037E   24101.44026586 -.00000359  00000-0 -22304-4 0  9990,2 55918  70.0004 265.0895 0002934 269.9725  90.1097 14.98326859 58895,6950.203,96.107,574.107,570.028,0.0
55918.0,STARLINK-5867,PAYLOAD,2024-04-10 20:10:47,14.98325922,0.0002935,69.9998,264.0795,270.0511,90.0312,-2.3345e-05,-3.71e-06,0.0,0 STARLINK-5867,1 55918U 23037E   24101.84082712 -.00000371  00000-0 -23345-4 0  9997,2 55918  69.9998 264.0795 0002935 270.0511  90.0312 14.98325922 58955,6950.206,96.107,574.11,570.031,0.0
55918.0,STARLINK-5867,PAYLOAD,2024-04-11 12:12:07,14.9833416,0.0002993,70.0,262.3963,270.1383,89.9433,7.3656e-05,7.86e-06,0.0,0 STARLINK-5867,1 55918U 23037E   24102.50841975  .00000786  00000-0  73656-4 0  9993,2 55918  70.0000 262.3963 0002993 270.1383  89.9433 14.98334160 59396,6950.18,96.107,574.125,569.965,0.0
55918.0,STARLINK-5867,PAYLOAD,2024-04-11 13:48:15,14.98334258,0.0002996,69.9999,262.228,270.1215,89.9601,7.4456e-05,7.96e-06,0.0,0 STARLINK-5867,1 55918U 23037E   24102.57517957  .00000796  00000-0  74456-4 0  9990,2 55918  69.9999 262.2280 0002996 270.1215  89.9601 14.98334258 59067,6950.18,96.107,574.127,569.962,0.0
55918.0,STARLINK-5867,PAYLOAD,2024-04-11 20:12:47,14.98335519,0.000296,70.0001,261.555,270.4618,89.6202,0.00012193,1.362e-05,0.0,0 STARLINK-5867,1 55918U 23037E   24102.84221715  .00001362  00000-0  12193-3 0  9993,2 55918  70.0001 261.5550 0002960 270.4618  89.6202 14.98335519 59107,6950.176,96.107,574.098,569.984,0.0
55918.0,STARLINK-5867,PAYLOAD,2024-04-12 12:14:08,14.98329398,0.0003096,69.9995,259.8707,270.8416,89.2388,0.00013159,1.477e-05,0.0,0 STARLINK-5867,1 55918U 23037E   24103.50982049  .00001477  00000-0  13159-3 0  9991,2 55918  69.9995 259.8707 0003096 270.8416  89.2388 14.98329398 59548,6950.195,96.107,574.212,569.908,0.0
55918.0,STARLINK-5867,PAYLOAD,2024-04-12 13:50:16,14.98329605,0.00031,69.9995,259.7024,270.8507,89.2297,0.00013251,1.488e-05,0.0,0 STARLINK-5867,1 55918U 23037E   24103.57658052  .00001488  00000-0  13251-3 0  9997,2 55918  69.9995 259.7024 0003100 270.8507  89.2297 14.98329605 59210,6950.194,96.107,574.214,569.905,0.0
55918.0,STARLINK-5867,PAYLOAD,2024-04-12 15:26:24,14.9833013,0.0003097,69.9995,259.5341,270.864,89.2164,0.00013643,1.535e-05,0.0,0 STARLINK-5867,1 55918U 23037E   24103.64334028  .00001535  00000-0  13643-3 0  9997,2 55918  69.9995 259.5341 0003097 270.8640  89.2164 14.98330130 59222,6950.192,96.107,574.21,569.905,0.0
55918.0,STARLINK-5867,PAYLOAD,2024-04-13 12:16:09,14.98333334,0.0003032,70.0,257.3464,273.8809,86.2003,-2.2174e-06,-1.19e-06,0.0,0 STARLINK-5867,1 55918U 23037E   24104.51122158 -.00000119  00000-0 -22174-5 0  9993,2 55918  70.0000 257.3464 0003032 273.8809  86.2003 14.98333334 59692,6950.183,96.107,574.155,569.94,0.0
55918.0,STARLINK-5867,PAYLOAD,2024-04-13 13:52:17,14.98333236,0.0003035,70.0,257.1781,273.9831,86.0981,-4.5699e-06,-1.48e-06,0.0,0 STARLINK-5867,1 55918U 23037E   24104.57798148 -.00000148  00000-0 -45699-5 0  9996,2 55918  70.0000 257.1781 0003035 273.9831  86.0981 14.98333236 59369,6950.183,96.107,574.157,569.939,0.0
55918.0,STARLINK-5867,PAYLOAD,2024-04-13 20:16:49,14.98334641,0.0003037,70.0001,256.5049,274.5635,85.5177,9.8029e-06,2.4e-07,0.0,0 STARLINK-5867,1 55918U 23037E   24104.84501958  .00000024  00000-0  98029-5 0  9993,2 55918  70.0001 256.5049 0003037 274.5635  85.5177 14.98334641 59408,6950.179,96.107,574.154,569.933,0.0
55918.0,STARLINK-5867,PAYLOAD,2024-04-14 12:18:10,14.98332421,0.0003095,70.0002,254.8219,275.0384,85.0421,6.4986e-05,6.83e-06,0.0,0 STARLINK-5867,1 55918U 23037E   24105.51261916  .00000683  00000-0  64986-4 0  9990,2 55918  70.0002 254.8219 0003095 275.0384  85.0421 14.98332421 59849,6950.185,96.107,574.201,569.899,0.0
55918.0,STARLINK-5867,PAYLOAD,2024-04-14 20:18:50,14.98337211,0.0002846,70.0007,253.9808,269.6891,90.3942,0.00012575,1.408e-05,0.0,0 STARLINK-5867,1 55918U 23037E   24105.84641407  .00001408  00000-0  12575-3 0  9995,2 55918  70.0007 253.9808 0002846 269.6891  90.3942 14.98337211 59550,6950.171,96.107,574.014,570.058,0.0
55918.0,STARLINK-5867,PAYLOAD,2024-04-15 12:20:11,14.98328198,0.0002659,70.0013,252.298,265.4971,94.5884,6.32e-05,6.61e-06,0.0,0 STARLINK-5867,1 55918U 23037E   24106.51402107  .00000661  00000-0  63200-4 0  9994,2 55918  70.0013 252.2980 0002659 265.4971  94.5884 14.98328198 59998,6950.198,96.107,573.912,570.215,0.0
55918.0,STARLINK-5867,PAYLOAD,2024-04-15 13:56:19,14.98328201,0.0002661,70.0013,252.1297,265.4867,94.5988,6.1239e-05,6.38e-06,0.0,0 STARLINK-5867,1 55918U 23037E   24106.58078116  .00000638  00000-0  61239-4 0  9994,2 55918  70.0013 252.1297 0002661 265.4867  94.5988 14.98328201 59669,6950.198,96.107,573.913,570.214,0.0
55918.0,STARLINK-5867,PAYLOAD,2024-04-16 12:22:11,14.9833827,0.0002766,70.0011,249.7728,267.1269,92.9574,8.4616e-05,9.17e-06,0.0,0 STARLINK-5867,1 55918U 23037E   24107.51541424  .00000917  00000-0  84616-4 0  9999,2 55918  70.0011 249.7728 0002766 267.1269  92.9574 14.98338270 60144,6950.167,96.106,573.955,570.11,0.0
55918.0,STARLINK-5867,PAYLOAD,2024-04-16 13:58:19,14.98338232,0.0002768,70.0011,249.6045,267.1423,92.9419,8.3273e-05,9.01e-06,0.0,0 STARLINK-5867,1 55918U 23037E   24107.58217405  .00000901  00000-0  83273-4 0  9996,2 55918  70.0011 249.6045 0002768 267.1423  92.9419 14.98338232 59817,6950.167,96.106,573.956,570.109,0.0
55918.0,STARLINK-5867,PAYLOAD,2024-04-16 18:46:43,14.98347369,0.00028,70.0006,249.0991,267.7462,92.3376,0.00020099,2.307e-05,0.0,0 STARLINK-5867,1 55918U 23037E   24107.78244502  .00002307  00000-0  20099-3 0  9994,2 55918  70.0006 249.0991 0002800 267.7462  92.3376 14.98347369 60180,6950.139,96.106,573.95,570.058,0.0
